[{"CCSDS_OMM_VERS":"2.0","COMMENT":"GENERATED VIA SPACE-TRACK.ORG API","CREATION_DATE":"2020-04-24T22:46:09","ORIGINATOR":"18 SPCS","OBJECT_NAME":"ONEWEB-0027","OBJECT_ID":"2020-020J","CENTER_NAME":"EARTH","REF_FRAME":"TEME","TIME_SYSTEM":"UTC","MEAN_ELEMENT_THEORY":"SGP4","EPOCH":"2020-04-24T22:00:00.999936","MEAN_MOTION":"15.32211971","ECCENTRICITY":"0.00267930","INCLINATION":"87.4142","RA_OF_ASC_NODE":"126.7743","ARG_OF_PERICENTER":"169.7258","MEAN_ANOMALY":"42.1171","EPHEMERIS_TYPE":"0","CLASSIFICATION_TYPE":"U","NORAD_CAT_ID":"45432","ELEMENT_SET_NO":"999","REV_AT_EPOCH":"523","BSTAR":"0.00078330000000","MEAN_MOTION_DOT":"0.00024696","MEAN_MOTION_DDOT":"0.0000000000000","SEMIMAJOR_AXIS":"6847.351","PERIOD":"93.981","APOAPSIS":"487.562","PERIAPSIS":"450.870","OBJECT_TYPE":"PAYLOAD","RCS_SIZE":"MEDIUM","COUNTRY_CODE":"UK","LAUNCH_DATE":"2020-03-21","SITE":"TTMTR","DECAY_DATE":null,"FILE":"2738858","GP_ID":"152768989","TLE_LINE0":"0 ONEWEB-0027","TLE_LINE1":"1 45432U 20020J   20115.91667824  .00024696  00000-0  78330-3 0  9995","TLE_LINE2":"2 45432  87.4142 126.7743 0026793 169.7258  42.1171 15.32211971  5239"},{"CCSDS_OMM_VERS":"2.0","COMMENT":"GENERATED VIA SPACE-TRACK.ORG API","CREATION_DATE":"2020-04-25T14:36:09","ORIGINATOR":"18 SPCS","OBJECT_NAME":"ONEWEB-0027","OBJECT_ID":"2020-020J","CENTER_NAME":"EARTH","REF_FRAME":"TEME","TIME_SYSTEM":"UTC","MEAN_ELEMENT_THEORY":"SGP4","EPOCH":"2020-04-25T14:00:01.000224","MEAN_MOTION":"15.31171787","ECCENTRICITY":"0.00269040","INCLINATION":"87.4189","RA_OF_ASC_NODE":"126.5403","ARG_OF_PERICENTER":"167.0398","MEAN_ANOMALY":"119.1148","EPHEMERIS_TYPE":"0","CLASSIFICATION_TYPE":"U","NORAD_CAT_ID":"45432","ELEMENT_SET_NO":"999","REV_AT_EPOCH":"533","BSTAR":"-0.00209060000000","MEAN_MOTION_DOT":"-0.00062954","MEAN_MOTION_DDOT":"0.0000000000000","SEMIMAJOR_AXIS":"6850.452","PERIOD":"94.045","APOAPSIS":"490.747","PERIAPSIS":"453.886","OBJECT_TYPE":"PAYLOAD","RCS_SIZE":"MEDIUM","COUNTRY_CODE":"UK","LAUNCH_DATE":"2020-03-21","SITE":"TTMTR","DECAY_DATE":null,"FILE":"2739220","GP_ID":"152836734","TLE_LINE0":"0 ONEWEB-0027","TLE_LINE1":"1 45432U 20020J   20116.58334491 -.00062954  00000-0 -20906-2 0  9996","TLE_LINE2":"2 45432  87.4189 126.5403 0026904 167.0398 119.1148 15.31171787  5330"},{"CCSDS_OMM_VERS":"2.0","COMMENT":"GENERATED VIA SPACE-TRACK.ORG API","CREATION_DATE":"2020-04-25T22:36:09","ORIGINATOR":"18 SPCS","OBJECT_NAME":"ONEWEB-0027","OBJECT_ID":"2020-020J","CENTER_NAME":"EARTH","REF_FRAME":"TEME","TIME_SYSTEM":"UTC","MEAN_ELEMENT_THEORY":"SGP4","EPOCH":"2020-04-25T20:00:01.000224","MEAN_MOTION":"15.30407300","ECCENTRICITY":"0.00269570","INCLINATION":"87.4221","RA_OF_ASC_NODE":"126.4542","ARG_OF_PERICENTER":"166.1404","MEAN_ANOMALY":"56.9943","EPHEMERIS_TYPE":"0","CLASSIFICATION_TYPE":"U","NORAD_CAT_ID":"45432","ELEMENT_SET_NO":"999","REV_AT_EPOCH":"537","BSTAR":"0.00010343000000","MEAN_MOTION_DOT":"0.00003113","MEAN_MOTION_DDOT":"0.0000000000000","SEMIMAJOR_AXIS":"6852.733","PERIOD":"94.092","APOAPSIS":"493.071","PERIAPSIS":"456.125","OBJECT_TYPE":"PAYLOAD","RCS_SIZE":"MEDIUM","COUNTRY_CODE":"UK","LAUNCH_DATE":"2020-03-21","SITE":"TTMTR","DECAY_DATE":null,"FILE":"2739380","GP_ID":"152860836","TLE_LINE0":"0 ONEWEB-0027","TLE_LINE1":"1 45432U 20020J   20116.83334491  .00003113  00000-0  10343-3 0  9999","TLE_LINE2":"2 45432  87.4221 126.4542 0026957 166.1404  56.9943 15.30407300  5373"},{"CCSDS_OMM_VERS":"2.0","COMMENT":"GENERATED VIA SPACE-TRACK.ORG API","CREATION_DATE":"2020-04-26T07:56:09","ORIGINATOR":"18 SPCS","OBJECT_NAME":"ONEWEB-0027","OBJECT_ID":"2020-020J","CENTER_NAME":"EARTH","REF_FRAME":"TEME","TIME_SYSTEM":"UTC","MEAN_ELEMENT_THEORY":"SGP4","EPOCH":"2020-04-26T06:00:00.999648","MEAN_MOTION":"15.30054096","ECCENTRICITY":"0.00271010","INCLINATION":"87.4247","RA_OF_ASC_NODE":"126.3083","ARG_OF_PERICENTER":"164.8224","MEAN_ANOMALY":"191.9972","EPHEMERIS_TYPE":"0","CLASSIFICATION_TYPE":"U","NORAD_CAT_ID":"45432","ELEMENT_SET_NO":"999","REV_AT_EPOCH":"543","BSTAR":"-0.00077295000000","MEAN_MOTION_DOT":"-0.00022574","MEAN_MOTION_DDOT":"0.0000000000000","SEMIMAJOR_AXIS":"6853.787","PERIOD":"94.114","APOAPSIS":"494.227","PERIAPSIS":"457.078","OBJECT_TYPE":"PAYLOAD","RCS_SIZE":"MEDIUM","COUNTRY_CODE":"UK","LAUNCH_DATE":"2020-03-21","SITE":"TTMTR","DECAY_DATE":null,"FILE":"2739640","GP_ID":"152886831","TLE_LINE0":"0 ONEWEB-0027","TLE_LINE1":"1 45432U 20020J   20117.25001157 -.00022574  00000-0 -77295-3 0  9999","TLE_LINE2":"2 45432  87.4247 126.3083 0027101 164.8224 191.9972 15.30054096  5436"},{"CCSDS_OMM_VERS":"2.0","COMMENT":"GENERATED VIA SPACE-TRACK.ORG API","CREATION_DATE":"2020-04-26T14:46:10","ORIGINATOR":"18 SPCS","OBJECT_NAME":"ONEWEB-0027","OBJECT_ID":"2020-020J","CENTER_NAME":"EARTH","REF_FRAME":"TEME","TIME_SYSTEM":"UTC","MEAN_ELEMENT_THEORY":"SGP4","EPOCH":"2020-04-26T14:00:01.000224","MEAN_MOTION":"15.29077290","ECCENTRICITY":"0.00271730","INCLINATION":"87.4279","RA_OF_ASC_NODE":"126.1930","ARG_OF_PERICENTER":"163.4345","MEAN_ANOMALY":"227.8492","EPHEMERIS_TYPE":"0","CLASSIFICATION_TYPE":"U","NORAD_CAT_ID":"45432","ELEMENT_SET_NO":"999","REV_AT_EPOCH":"549","BSTAR":"-0.00635390000000","MEAN_MOTION_DOT":"-0.00176882","MEAN_MOTION_DDOT":"0.0000000000000","SEMIMAJOR_AXIS":"6856.706","PERIOD":"94.174","APOAPSIS":"497.203","PERIAPSIS":"459.939","OBJECT_TYPE":"PAYLOAD","RCS_SIZE":"MEDIUM","COUNTRY_CODE":"UK","LAUNCH_DATE":"2020-03-21","SITE":"TTMTR","DECAY_DATE":null,"FILE":"2739720","GP_ID":"152888606","TLE_LINE0":"0 ONEWEB-0027","TLE_LINE1":"1 45432U 20020J   20117.58334491 -.00176882  00000-0 -63539-2 0  9992","TLE_LINE2":"2 45432  87.4279 126.1930 0027173 163.4345 227.8492 15.29077290  5499"},{"CCSDS_OMM_VERS":"2.0","COMMENT":"GENERATED VIA SPACE-TRACK.ORG API","CREATION_DATE":"2020-04-27T00:16:09","ORIGINATOR":"18 SPCS","OBJECT_NAME":"ONEWEB-0027","OBJECT_ID":"2020-020J","CENTER_NAME":"EARTH","REF_FRAME":"TEME","TIME_SYSTEM":"UTC","MEAN_ELEMENT_THEORY":"SGP4","EPOCH":"2020-04-26T20:00:01.999872","MEAN_MOTION":"15.28343866","ECCENTRICITY":"0.00271870","INCLINATION":"87.4311","RA_OF_ASC_NODE":"126.1074","ARG_OF_PERICENTER":"162.2681","MEAN_ANOMALY":"164.2165","EPHEMERIS_TYPE":"0","CLASSIFICATION_TYPE":"U","NORAD_CAT_ID":"45432","ELEMENT_SET_NO":"999","REV_AT_EPOCH":"552","BSTAR":"-0.00400910000000","MEAN_MOTION_DOT":"-0.00110033","MEAN_MOTION_DDOT":"0.0000000000000","SEMIMAJOR_AXIS":"6858.899","PERIOD":"94.219","APOAPSIS":"499.412","PERIAPSIS":"462.117","OBJECT_TYPE":"PAYLOAD","RCS_SIZE":"MEDIUM","COUNTRY_CODE":"UK","LAUNCH_DATE":"2020-03-21","SITE":"TTMTR","DECAY_DATE":null,"FILE":"2739943","GP_ID":"152933748","TLE_LINE0":"0 ONEWEB-0027","TLE_LINE1":"1 45432U 20020J   20117.83335648 -.00110033  00000-0 -40091-2 0  9999","TLE_LINE2":"2 45432  87.4311 126.1074 0027187 162.2681 164.2165 15.28343866  5529"},{"CCSDS_OMM_VERS":"2.0","COMMENT":"GENERATED VIA SPACE-TRACK.ORG API","CREATION_DATE":"2020-04-27T06:26:09","ORIGINATOR":"18 SPCS","OBJECT_NAME":"ONEWEB-0027","OBJECT_ID":"2020-020J","CENTER_NAME":"EARTH","REF_FRAME":"TEME","TIME_SYSTEM":"UTC","MEAN_ELEMENT_THEORY":"SGP4","EPOCH":"2020-04-27T02:00:01.000224","MEAN_MOTION":"15.27895753","ECCENTRICITY":"0.00273480","INCLINATION":"87.4340","RA_OF_ASC_NODE":"126.0206","ARG_OF_PERICENTER":"161.7344","MEAN_ANOMALY":"99.1232","EPHEMERIS_TYPE":"0","CLASSIFICATION_TYPE":"U","NORAD_CAT_ID":"45432","ELEMENT_SET_NO":"999","REV_AT_EPOCH":"556","BSTAR":"-0.00143000000000","MEAN_MOTION_DOT":"-0.00039042","MEAN_MOTION_DDOT":"0.0000000000000","SEMIMAJOR_AXIS":"6860.240","PERIOD":"94.247","APOAPSIS":"500.867","PERIAPSIS":"463.344","OBJECT_TYPE":"PAYLOAD","RCS_SIZE":"MEDIUM","COUNTRY_CODE":"UK","LAUNCH_DATE":"2020-03-21","SITE":"TTMTR","DECAY_DATE":null,"FILE":"2740010","GP_ID":"152974569","TLE_LINE0":"0 ONEWEB-0027","TLE_LINE1":"1 45432U 20020J   20118.08334491 -.00039042  00000-0 -14300-2 0  9996","TLE_LINE2":"2 45432  87.4340 126.0206 0027348 161.7344  99.1232 15.27895753  5567"},{"CCSDS_OMM_VERS":"2.0","COMMENT":"GENERATED VIA SPACE-TRACK.ORG API","CREATION_DATE":"2020-04-27T17:02:54","ORIGINATOR":"18 SPCS","OBJECT_NAME":"ONEWEB-0027","OBJECT_ID":"2020-020J","CENTER_NAME":"EARTH","REF_FRAME":"TEME","TIME_SYSTEM":"UTC","MEAN_ELEMENT_THEORY":"SGP4","EPOCH":"2020-04-27T12:00:00.999648","MEAN_MOTION":"15.27233524","ECCENTRICITY":"0.00273390","INCLINATION":"87.4363","RA_OF_ASC_NODE":"125.8761","ARG_OF_PERICENTER":"160.1288","MEAN_ANOMALY":"230.9056","EPHEMERIS_TYPE":"0","CLASSIFICATION_TYPE":"U","NORAD_CAT_ID":"45432","ELEMENT_SET_NO":"999","REV_AT_EPOCH":"563","BSTAR":"-0.00431660000000","MEAN_MOTION_DOT":"-0.00114476","MEAN_MOTION_DDOT":"0.0000000000000","SEMIMAJOR_AXIS":"6862.223","PERIOD":"94.288","APOAPSIS":"502.849","PERIAPSIS":"465.328","OBJECT_TYPE":"PAYLOAD","RCS_SIZE":"MEDIUM","COUNTRY_CODE":"UK","LAUNCH_DATE":"2020-03-21","SITE":"TTMTR","DECAY_DATE":null,"FILE":"2740206","GP_ID":"152999384","TLE_LINE0":"0 ONEWEB-0027","TLE_LINE1":"1 45432U 20020J   20118.50001157 -.00114476 +00000-0 -43166-2 0  9990","TLE_LINE2":"2 45432 087.4363 125.8761 0027339 160.1288 230.9056 15.27233524005634"}]